{
 "generated_at": "2026-06-15T10:55:27Z",
 "sources": [
  {
   "name": "CelesTrak",
   "url": "https://celestrak.org/NORAD/elements/",
   "license": "frei verfügbar; Attribution. Ursprünglich USSPACECOM/Space-Track."
  },
  {
   "name": "GCAT (J. McDowell, planet4589.org)",
   "url": "https://planet4589.org/space/gcat/",
   "license": "CC-BY 4.0"
  }
 ],
 "satellites": [
  {
   "norad": 29228,
   "name": "RESURS-DK 1",
   "intl": "2006-021A",
   "group": "resource",
   "gcat": {
    "class": null,
    "category": null,
    "owner": null,
    "state": null
   },
   "omm": {
    "OBJECT_NAME": "RESURS-DK 1",
    "OBJECT_ID": "2006-021A",
    "EPOCH": "2026-06-14T22:04:52.586112",
    "MEAN_MOTION": 15.13210348,
    "ECCENTRICITY": 0.0006841,
    "INCLINATION": 69.934,
    "RA_OF_ASC_NODE": 345.4214,
    "ARG_OF_PERICENTER": 293.4121,
    "MEAN_ANOMALY": 66.6326,
    "EPHEMERIS_TYPE": 0,
    "CLASSIFICATION_TYPE": "U",
    "NORAD_CAT_ID": 29228,
    "ELEMENT_SET_NO": 999,
    "REV_AT_EPOCH": 10223,
    "BSTAR": 0.000139,
    "MEAN_MOTION_DOT": 0.00002367,
    "MEAN_MOTION_DDOT": 0
   }
  },
  {
   "norad": 59371,
   "name": "RESURS-P 4",
   "intl": "2024-061A",
   "group": "resource",
   "gcat": {
    "class": "C",
    "category": "IMG",
    "owner": "TSSKBP?",
    "state": "RU"
   },
   "omm": {
    "OBJECT_NAME": "RESURS-P 4",
    "OBJECT_ID": "2024-061A",
    "EPOCH": "2026-06-15T04:09:25.087392",
    "MEAN_MOTION": 15.32121238,
    "ECCENTRICITY": 0.0002025,
    "INCLINATION": 97.2755,
    "RA_OF_ASC_NODE": 114.1071,
    "ARG_OF_PERICENTER": 128.7089,
    "MEAN_ANOMALY": 231.4335,
    "EPHEMERIS_TYPE": 0,
    "CLASSIFICATION_TYPE": "U",
    "NORAD_CAT_ID": 59371,
    "ELEMENT_SET_NO": 999,
    "REV_AT_EPOCH": 12345,
    "BSTAR": 0.000092706,
    "MEAN_MOTION_DOT": 0.00002799,
    "MEAN_MOTION_DDOT": 0
   }
  },
  {
   "norad": 44233,
   "name": "RISAT-2B",
   "intl": "2019-028A",
   "group": "sar",
   "gcat": {
    "class": "C",
    "category": "IMG-R",
    "owner": "ISRO",
    "state": "IN"
   },
   "omm": {
    "OBJECT_NAME": "RISAT-2B",
    "OBJECT_ID": "2019-028A",
    "EPOCH": "2026-06-15T00:34:43.223232",
    "MEAN_MOTION": 15.0167287,
    "ECCENTRICITY": 0.0004756,
    "INCLINATION": 36.9981,
    "RA_OF_ASC_NODE": 6.9229,
    "ARG_OF_PERICENTER": 4.591,
    "MEAN_ANOMALY": 355.4876,
    "EPHEMERIS_TYPE": 0,
    "CLASSIFICATION_TYPE": "U",
    "NORAD_CAT_ID": 44233,
    "ELEMENT_SET_NO": 999,
    "REV_AT_EPOCH": 38750,
    "BSTAR": 0.00024344,
    "MEAN_MOTION_DOT": 0.00003144,
    "MEAN_MOTION_DDOT": 0
   }
  },
  {
   "norad": 44857,
   "name": "RISAT-2BR1",
   "intl": "2019-089F",
   "group": "sar",
   "gcat": {
    "class": "C",
    "category": "IMG-R",
    "owner": "ISRO",
    "state": "IN"
   },
   "omm": {
    "OBJECT_NAME": "RISAT-2BR1",
    "OBJECT_ID": "2019-089F",
    "EPOCH": "2026-06-15T03:49:00.122016",
    "MEAN_MOTION": 15.01646155,
    "ECCENTRICITY": 0.0011177,
    "INCLINATION": 36.9581,
    "RA_OF_ASC_NODE": 123.6513,
    "ARG_OF_PERICENTER": 161.5964,
    "MEAN_ANOMALY": 198.5184,
    "EPHEMERIS_TYPE": 0,
    "CLASSIFICATION_TYPE": "U",
    "NORAD_CAT_ID": 44857,
    "ELEMENT_SET_NO": 999,
    "REV_AT_EPOCH": 35689,
    "BSTAR": 0.00021388,
    "MEAN_MOTION_DOT": 0.00002754,
    "MEAN_MOTION_DDOT": 0
   }
  },
  {
   "norad": 46905,
   "name": "RISAT-2BR2",
   "intl": "2020-081A",
   "group": "sar",
   "gcat": {
    "class": "C",
    "category": "IMG-R",
    "owner": "ISRO",
    "state": "IN"
   },
   "omm": {
    "OBJECT_NAME": "RISAT-2BR2",
    "OBJECT_ID": "2020-081A",
    "EPOCH": "2026-06-15T03:41:41.034624",
    "MEAN_MOTION": 15.01620787,
    "ECCENTRICITY": 0.0010342,
    "INCLINATION": 36.8984,
    "RA_OF_ASC_NODE": 236.3535,
    "ARG_OF_PERICENTER": 147.1338,
    "MEAN_ANOMALY": 213.0048,
    "EPHEMERIS_TYPE": 0,
    "CLASSIFICATION_TYPE": "U",
    "NORAD_CAT_ID": 46905,
    "ELEMENT_SET_NO": 999,
    "REV_AT_EPOCH": 30716,
    "BSTAR": 0.00023395,
    "MEAN_MOTION_DOT": 0.00003019,
    "MEAN_MOTION_DDOT": 0
   }
  },
  {
   "norad": 43641,
   "name": "SAOCOM 1A",
   "intl": "2018-076A",
   "group": "sar",
   "gcat": {
    "class": "C",
    "category": "IMG-R",
    "owner": "CONAE",
    "state": "AR"
   },
   "omm": {
    "OBJECT_NAME": "SAOCOM 1A",
    "OBJECT_ID": "2018-076A",
    "EPOCH": "2026-06-15T04:16:38.345376",
    "MEAN_MOTION": 14.82146509,
    "ECCENTRICITY": 0.0001588,
    "INCLINATION": 97.8877,
    "RA_OF_ASC_NODE": 352.9562,
    "ARG_OF_PERICENTER": 78.1633,
    "MEAN_ANOMALY": 281.9758,
    "EPHEMERIS_TYPE": 0,
    "CLASSIFICATION_TYPE": "U",
    "NORAD_CAT_ID": 43641,
    "ELEMENT_SET_NO": 999,
    "REV_AT_EPOCH": 41580,
    "BSTAR": 0.0000096599,
    "MEAN_MOTION_DOT": 2.5e-7,
    "MEAN_MOTION_DDOT": 0
   }
  },
  {
   "norad": 46265,
   "name": "SAOCOM 1B",
   "intl": "2020-059A",
   "group": "sar",
   "gcat": {
    "class": "C",
    "category": "IMG-R",
    "owner": "CONAE",
    "state": "AR"
   },
   "omm": {
    "OBJECT_NAME": "SAOCOM 1B",
    "OBJECT_ID": "2020-059A",
    "EPOCH": "2026-06-15T03:24:19.791936",
    "MEAN_MOTION": 14.82208786,
    "ECCENTRICITY": 0.0001298,
    "INCLINATION": 97.8879,
    "RA_OF_ASC_NODE": 352.0152,
    "ARG_OF_PERICENTER": 82.676,
    "MEAN_ANOMALY": 277.4601,
    "EPHEMERIS_TYPE": 0,
    "CLASSIFICATION_TYPE": "U",
    "NORAD_CAT_ID": 46265,
    "ELEMENT_SET_NO": 999,
    "REV_AT_EPOCH": 31318,
    "BSTAR": 0.000085745,
    "MEAN_MOTION_DOT": 0.00000631,
    "MEAN_MOTION_DDOT": 0
   }
  },
  {
   "norad": 31797,
   "name": "SAR-LUPE 2",
   "intl": "2007-030A",
   "group": "sar",
   "gcat": {
    "class": "D",
    "category": "IMG-R",
    "owner": "BWB",
    "state": "D"
   },
   "omm": {
    "OBJECT_NAME": "SAR-LUPE 2",
    "OBJECT_ID": "2007-030A",
    "EPOCH": "2026-06-15T03:38:23.513856",
    "MEAN_MOTION": 15.49584785,
    "ECCENTRICITY": 0.0006249,
    "INCLINATION": 98.1044,
    "RA_OF_ASC_NODE": 270.3317,
    "ARG_OF_PERICENTER": 141.1112,
    "MEAN_ANOMALY": 219.0588,
    "EPHEMERIS_TYPE": 0,
    "CLASSIFICATION_TYPE": "U",
    "NORAD_CAT_ID": 31797,
    "ELEMENT_SET_NO": 999,
    "REV_AT_EPOCH": 5662,
    "BSTAR": 0.00051662,
    "MEAN_MOTION_DOT": 0.00028511,
    "MEAN_MOTION_DDOT": 0
   }
  },
  {
   "norad": 43831,
   "name": "SAUDISAT 5A",
   "intl": "2018-102A",
   "group": "resource",
   "gcat": {
    "class": "C",
    "category": "TECH",
    "owner": "KACST",
    "state": "SA"
   },
   "omm": {
    "OBJECT_NAME": "SAUDISAT 5A",
    "OBJECT_ID": "2018-102A",
    "EPOCH": "2026-06-15T04:48:22.031136",
    "MEAN_MOTION": 15.28030048,
    "ECCENTRICITY": 0.0010915,
    "INCLINATION": 97.3072,
    "RA_OF_ASC_NODE": 227.8193,
    "ARG_OF_PERICENTER": 135.1044,
    "MEAN_ANOMALY": 225.108,
    "EPHEMERIS_TYPE": 0,
    "CLASSIFICATION_TYPE": "U",
    "NORAD_CAT_ID": 43831,
    "ELEMENT_SET_NO": 999,
    "REV_AT_EPOCH": 41537,
    "BSTAR": 0.00017987,
    "MEAN_MOTION_DOT": 0.00004852,
    "MEAN_MOTION_DDOT": 0
   }
  }
 ]
}
