RESURS-DK 1             
1 29228U 06021A   26165.92005308  .00002367  00000+0  13900-3 0  9992
2 29228  69.9340 345.4214 0006841 293.4121  66.6326 15.13210348102235
SAR-LUPE 2              
1 31797U 07030A   26166.15166104  .00028511  00000+0  51662-3 0  9991
2 31797  98.1044 270.3317 0006249 141.1112 219.0588 15.49584785 56628
SAOCOM 1A               
1 43641U 18076A   26166.17822159  .00000025  00000+0  96599-5 0  9995
2 43641  97.8877 352.9562 0001588  78.1633 281.9758 14.82146509415806
SAUDISAT 5A             
1 43831U 18102A   26166.20025499  .00004852  00000+0  17987-3 0  9996
2 43831  97.3072 227.8193 0010915 135.1044 225.1080 15.28030048415374
RISAT-2B                
1 44233U 19028A   26166.02411138  .00003144  00000+0  24344-3 0  9998
2 44233  36.9981   6.9229 0004756   4.5910 355.4876 15.01672870387501
RISAT-2BR1              
1 44857U 19089F   26166.15902919  .00002754  00000+0  21388-3 0  9994
2 44857  36.9581 123.6513 0011177 161.5964 198.5184 15.01646155356893
SAOCOM 1B               
1 46265U 20059A   26166.14189574  .00000631  00000+0  85745-4 0  9991
2 46265  97.8879 352.0152 0001298  82.6760 277.4601 14.82208786313189
RISAT-2BR2              
1 46905U 20081A   26166.15394716  .00003019  00000+0  23395-3 0  9999
2 46905  36.8984 236.3535 0010342 147.1338 213.0048 15.01620787307160
RESURS-P 4              
1 59371U 24061A   26166.17320703  .00002799  00000+0  92706-4 0  9996
2 59371  97.2755 114.1071 0002025 128.7089 231.4335 15.32121238123455
